start=new Date('2022-11-04T00:00:00.000Z').valueOf();
sats=[{"EPOCH":"2022-11-03T18:10:39.422208","MEAN_MOTION_DDOT":"0.0000000000000","LAUNCH_DATE":"2022-03-19","TIME_SYSTEM":"UTC","GP_ID":"216863007","INCLINATION":"53.2176","OBJECT_NAME":"STARLINK-3713","ARG_OF_PERICENTER":"46.0535","EPHEMERIS_TYPE":"0","APOAPSIS":"541.142","SITE":"AFETR","MEAN_MOTION":"15.08835034","DECAY_DATE":null,"COUNTRY_CODE":"US","TLE_LINE2":"2 52091  53.2176 174.5873 0001997  46.0535 314.0621 15.08835034 36189","OBJECT_ID":"2022-029D","PERIOD":"95.438","FILE":"3644033","CLASSIFICATION_TYPE":"U","REF_FRAME":"TEME","ECCENTRICITY":"0.00019970","MEAN_ELEMENT_THEORY":"SGP4","RCS_SIZE":"LARGE","REV_AT_EPOCH":"3618","SEMIMAJOR_AXIS":"6917.896","NORAD_CAT_ID":"52091","BSTAR":"0.00003861300000","RA_OF_ASC_NODE":"174.5873","TLE_LINE1":"1 52091U 22029D   22307.75740072  .00000326  00000-0  38613-4 0  9994","MEAN_MOTION_DOT":"0.00000326","OBJECT_TYPE":"PAYLOAD","PERIAPSIS":"538.379","CENTER_NAME":"EARTH","MEAN_ANOMALY":"314.0621","ELEMENT_SET_NO":"999"},{"PERIAPSIS":"538.435","MEAN_MOTION_DOT":"0.00000415","TLE_LINE1":"1 52092U 22029E   22307.02508843  .00000415  00000-0  44208-4 0  9999","OBJECT_TYPE":"PAYLOAD","CENTER_NAME":"EARTH","ELEMENT_SET_NO":"999","MEAN_ANOMALY":"315.0628","REF_FRAME":"TEME","RCS_SIZE":"LARGE","REV_AT_EPOCH":"3607","ECCENTRICITY":"0.00019740","MEAN_ELEMENT_THEORY":"SGP4","RA_OF_ASC_NODE":"177.8772","BSTAR":"0.00004420800000","NORAD_CAT_ID":"52092","SEMIMAJOR_AXIS":"6917.936","OBJECT_NAME":"STARLINK-3716","EPHEMERIS_TYPE":"0","ARG_OF_PERICENTER":"45.0524","APOAPSIS":"541.166","SITE":"AFETR","DECAY_DATE":null,"COUNTRY_CODE":"US","TLE_LINE2":"2 52092  53.2170 177.8772 0001974  45.0524 315.0628 15.08821893 36074","MEAN_MOTION":"15.08821893","CLASSIFICATION_TYPE":"U","OBJECT_ID":"2022-029E","PERIOD":"95.439","FILE":"3643813","EPOCH":"2022-11-03T00:36:07.640352","TIME_SYSTEM":"UTC","MEAN_MOTION_DDOT":"0.0000000000000","LAUNCH_DATE":"2022-03-19","GP_ID":"216832429","INCLINATION":"53.2170"},{"REF_FRAME":"TEME","ECCENTRICITY":"0.00018510","MEAN_ELEMENT_THEORY":"SGP4","REV_AT_EPOCH":"3620","RCS_SIZE":"LARGE","NORAD_CAT_ID":"52093","SEMIMAJOR_AXIS":"6917.860","BSTAR":"0.00034327000000","RA_OF_ASC_NODE":"174.0685","TLE_LINE1":"1 52093U 22029F   22307.87515215  .00005180  00000-0  34327-3 0  9998","MEAN_MOTION_DOT":"0.00005180","OBJECT_TYPE":"PAYLOAD","PERIAPSIS":"538.445","CENTER_NAME":"EARTH","MEAN_ANOMALY":"294.6881","ELEMENT_SET_NO":"999","EPOCH":"2022-11-03T21:00:13.145760","MEAN_MOTION_DDOT":"0.0000000000000","LAUNCH_DATE":"2022-03-19","TIME_SYSTEM":"UTC","GP_ID":"216862511","INCLINATION":"53.2156","ARG_OF_PERICENTER":"65.4304","OBJECT_NAME":"STARLINK-3673","EPHEMERIS_TYPE":"0","SITE":"AFETR","APOAPSIS":"541.006","MEAN_MOTION":"15.08846540","DECAY_DATE":null,"COUNTRY_CODE":"US","TLE_LINE2":"2 52093  53.2156 174.0685 0001851  65.4304 294.6881 15.08846540 36201","OBJECT_ID":"2022-029F","PERIOD":"95.437","FILE":"3644033","CLASSIFICATION_TYPE":"U"},{"TIME_SYSTEM":"UTC","LAUNCH_DATE":"2022-03-19","MEAN_MOTION_DDOT":"0.0000000000000","EPOCH":"2022-11-03T16:19:22.539936","INCLINATION":"53.2182","GP_ID":"216862762","TLE_LINE2":"2 52094  53.2182 174.9418 0001683  46.0959 314.0172 15.08837212 36170","COUNTRY_CODE":"US","DECAY_DATE":null,"MEAN_MOTION":"15.08837212","APOAPSIS":"540.918","SITE":"AFETR","ARG_OF_PERICENTER":"46.0959","OBJECT_NAME":"STARLINK-3714","EPHEMERIS_TYPE":"0","CLASSIFICATION_TYPE":"U","FILE":"3644033","OBJECT_ID":"2022-029G","PERIOD":"95.438","REV_AT_EPOCH":"3617","RCS_SIZE":"LARGE","MEAN_ELEMENT_THEORY":"SGP4","ECCENTRICITY":"0.00016830","REF_FRAME":"TEME","BSTAR":"0.00014430000000","RA_OF_ASC_NODE":"174.9418","SEMIMAJOR_AXIS":"6917.889","NORAD_CAT_ID":"52094","CENTER_NAME":"EARTH","PERIAPSIS":"538.590","OBJECT_TYPE":"PAYLOAD","TLE_LINE1":"1 52094U 22029G   22307.68012199  .00002009  00000-0  14430-3 0  9991","MEAN_MOTION_DOT":"0.00002009","ELEMENT_SET_NO":"999","MEAN_ANOMALY":"314.0172"},{"MEAN_MOTION":"15.08831494","COUNTRY_CODE":"US","TLE_LINE2":"2 52095  53.2154 177.6683 0001748  51.8707 308.2442 15.08831494 36082","DECAY_DATE":null,"SITE":"AFETR","APOAPSIS":"540.981","OBJECT_NAME":"STARLINK-3701","ARG_OF_PERICENTER":"51.8707","EPHEMERIS_TYPE":"0","FILE":"3643813","PERIOD":"95.438","OBJECT_ID":"2022-029H","CLASSIFICATION_TYPE":"U","LAUNCH_DATE":"2022-03-19","MEAN_MOTION_DDOT":"0.0000000000000","TIME_SYSTEM":"UTC","EPOCH":"2022-11-03T01:45:00.525600","INCLINATION":"53.2154","GP_ID":"216832679","CENTER_NAME":"EARTH","OBJECT_TYPE":"PAYLOAD","TLE_LINE1":"1 52095U 22029H   22307.07292275 -.00000121  00000-0  10500-4 0  9999","MEAN_MOTION_DOT":"-0.00000121","PERIAPSIS":"538.562","MEAN_ANOMALY":"308.2442","ELEMENT_SET_NO":"999","ECCENTRICITY":"0.00017480","MEAN_ELEMENT_THEORY":"SGP4","RCS_SIZE":"LARGE","REV_AT_EPOCH":"3608","REF_FRAME":"TEME","NORAD_CAT_ID":"52095","SEMIMAJOR_AXIS":"6917.906","RA_OF_ASC_NODE":"177.6683","BSTAR":"0.00001050000000"},{"ELEMENT_SET_NO":"999","MEAN_ANOMALY":"311.7012","PERIAPSIS":"538.390","OBJECT_TYPE":"PAYLOAD","TLE_LINE1":"1 52096U 22029J   22307.84662991  .00003283  00000-0  22420-3 0  9995","MEAN_MOTION_DOT":"0.00003283","CENTER_NAME":"EARTH","RA_OF_ASC_NODE":"164.1841","BSTAR":"0.00022420000000","NORAD_CAT_ID":"52096","SEMIMAJOR_AXIS":"6917.838","REF_FRAME":"TEME","RCS_SIZE":"LARGE","REV_AT_EPOCH":"3632","ECCENTRICITY":"0.00018970","MEAN_ELEMENT_THEORY":"SGP4","CLASSIFICATION_TYPE":"U","FILE":"3644033","OBJECT_ID":"2022-029J","PERIOD":"95.437","APOAPSIS":"541.015","SITE":"AFETR","ARG_OF_PERICENTER":"48.4143","EPHEMERIS_TYPE":"0","OBJECT_NAME":"STARLINK-3717","TLE_LINE2":"2 52096  53.2159 164.1841 0001897  48.4143 311.7012 15.08853969 36326","COUNTRY_CODE":"US","DECAY_DATE":null,"MEAN_MOTION":"15.08853969","GP_ID":"216862261","INCLINATION":"53.2159","EPOCH":"2022-11-03T20:19:08.824224","TIME_SYSTEM":"UTC","MEAN_MOTION_DDOT":"0.0000000000000","LAUNCH_DATE":"2022-03-19"},{"MEAN_ANOMALY":"296.3772","ELEMENT_SET_NO":"999","OBJECT_TYPE":"PAYLOAD","MEAN_MOTION_DOT":"0.00001337","TLE_LINE1":"1 52098U 22029L   22307.73899887  .00001337  00000-0  10207-3 0  9999","PERIAPSIS":"538.503","CENTER_NAME":"EARTH","NORAD_CAT_ID":"52098","SEMIMAJOR_AXIS":"6917.881","BSTAR":"0.00010207000000","RA_OF_ASC_NODE":"174.6829","REF_FRAME":"TEME","MEAN_ELEMENT_THEORY":"SGP4","ECCENTRICITY":"0.00017960","RCS_SIZE":"LARGE","REV_AT_EPOCH":"3618","FILE":"3644033","OBJECT_ID":"2022-029L","PERIOD":"95.438","CLASSIFICATION_TYPE":"U","APOAPSIS":"540.988","SITE":"AFETR","OBJECT_NAME":"STARLINK-3665","ARG_OF_PERICENTER":"63.7404","EPHEMERIS_TYPE":"0","MEAN_MOTION":"15.08839958","COUNTRY_CODE":"US","TLE_LINE2":"2 52098  53.2180 174.6829 0001796  63.7404 296.3772 15.08839958 36189","DECAY_DATE":null,"GP_ID":"216862011","INCLINATION":"53.2180","EPOCH":"2022-11-03T17:44:09.502368","LAUNCH_DATE":"2022-03-19","MEAN_MOTION_DDOT":"0.0000000000000","TIME_SYSTEM":"UTC"},{"GP_ID":"216863263","INCLINATION":"53.2193","EPOCH":"2022-11-03T17:33:32.991840","TIME_SYSTEM":"UTC","LAUNCH_DATE":"2022-03-19","MEAN_MOTION_DDOT":"0.0000000000000","CLASSIFICATION_TYPE":"U","PERIOD":"95.437","OBJECT_ID":"2022-029N","FILE":"3644033","OBJECT_NAME":"STARLINK-3702","EPHEMERIS_TYPE":"0","ARG_OF_PERICENTER":"54.4302","APOAPSIS":"540.325","SITE":"AFETR","DECAY_DATE":null,"COUNTRY_CODE":"US","TLE_LINE2":"2 52100  53.2193 174.7129 0000874  54.4302 305.6772 15.08848170 36181","MEAN_MOTION":"15.08848170","RA_OF_ASC_NODE":"174.7129","BSTAR":"0.00007579000000","SEMIMAJOR_AXIS":"6917.855","NORAD_CAT_ID":"52100","REF_FRAME":"TEME","RCS_SIZE":"LARGE","REV_AT_EPOCH":"3618","MEAN_ELEMENT_THEORY":"SGP4","ECCENTRICITY":"0.00008740","ELEMENT_SET_NO":"999","MEAN_ANOMALY":"305.6772","PERIAPSIS":"539.116","MEAN_MOTION_DOT":"0.00000919","TLE_LINE1":"1 52100U 22029N   22307.73163185  .00000919  00000-0  75790-4 0  9992","OBJECT_TYPE":"PAYLOAD","CENTER_NAME":"EARTH"},{"INCLINATION":"53.2173","GP_ID":"216863008","TIME_SYSTEM":"UTC","MEAN_MOTION_DDOT":"0.0000000000000","LAUNCH_DATE":"2022-03-19","EPOCH":"2022-11-03T15:47:34.056384","CLASSIFICATION_TYPE":"U","FILE":"3644033","OBJECT_ID":"2022-029P","PERIOD":"95.438","TLE_LINE2":"2 52101  53.2173 175.0428 0001471  56.4357 303.6775 15.08840612 36164","COUNTRY_CODE":"US","DECAY_DATE":null,"MEAN_MOTION":"15.08840612","SITE":"AFETR","APOAPSIS":"540.761","OBJECT_NAME":"STARLINK-3703","ARG_OF_PERICENTER":"56.4357","EPHEMERIS_TYPE":"0","RA_OF_ASC_NODE":"175.0428","BSTAR":"0.00007921600000","NORAD_CAT_ID":"52101","SEMIMAJOR_AXIS":"6917.879","RCS_SIZE":"LARGE","REV_AT_EPOCH":"3616","MEAN_ELEMENT_THEORY":"SGP4","ECCENTRICITY":"0.00014710","REF_FRAME":"TEME","ELEMENT_SET_NO":"999","MEAN_ANOMALY":"303.6775","CENTER_NAME":"EARTH","PERIAPSIS":"538.726","OBJECT_TYPE":"PAYLOAD","MEAN_MOTION_DOT":"0.00000973","TLE_LINE1":"1 52101U 22029P   22307.65803306  .00000973  00000-0  79216-4 0  9997"},{"REF_FRAME":"TEME","MEAN_ELEMENT_THEORY":"SGP4","ECCENTRICITY":"0.00012350","REV_AT_EPOCH":"3631","RCS_SIZE":"LARGE","NORAD_CAT_ID":"52102","SEMIMAJOR_AXIS":"6917.867","RA_OF_ASC_NODE":"164.6922","BSTAR":"0.00000272310000","TLE_LINE1":"1 52102U 22029Q   22307.73351278 -.00000245  00000-0  27231-5 0  9997","MEAN_MOTION_DOT":"-0.00000245","OBJECT_TYPE":"PAYLOAD","PERIAPSIS":"538.878","CENTER_NAME":"EARTH","MEAN_ANOMALY":"305.6341","ELEMENT_SET_NO":"999","EPOCH":"2022-11-03T17:36:15.504192","MEAN_MOTION_DDOT":"0.0000000000000","LAUNCH_DATE":"2022-03-19","TIME_SYSTEM":"UTC","GP_ID":"216861761","INCLINATION":"53.2194","ARG_OF_PERICENTER":"54.4766","OBJECT_NAME":"STARLINK-3709","EPHEMERIS_TYPE":"0","APOAPSIS":"540.586","SITE":"AFETR","MEAN_MOTION":"15.08844365","DECAY_DATE":null,"COUNTRY_CODE":"US","TLE_LINE2":"2 52102  53.2194 164.6922 0001235  54.4766 305.6341 15.08844365 36318","OBJECT_ID":"2022-029Q","PERIOD":"95.437","FILE":"3644033","CLASSIFICATION_TYPE":"U"}];
